{"type": "FeatureCollection", "features": [ {"type": "Feature", "properties": {"norad_id": 39019, "name": "PLEIADES 1B", "group": "resource", "lat": 51.7086442286916, "lon": -101.29306500822072, "alt_km": 692.4060785881102, "timestamp": "2025-12-21T16:47:54.385706+00:00", "meta": {"OBJECT_NAME": "PLEIADES 1B", "OBJECT_ID": "2012-068A", "EPOCH": "2025-12-21T11:16:36.526944", "MEAN_MOTION": 14.58560851, "ECCENTRICITY": 0.000119, "INCLINATION": 98.1792, "RA_OF_ASC_NODE": 67.9842, "ARG_OF_PERICENTER": 85.1697, "MEAN_ANOMALY": 274.9638, "EPHEMERIS_TYPE": 0, "CLASSIFICATION_TYPE": "U", "NORAD_CAT_ID": 39019, "ELEMENT_SET_NO": 999, "REV_AT_EPOCH": 69494, "BSTAR": 0.00012725, "MEAN_MOTION_DOT": 5.46e-06, "MEAN_MOTION_DDOT": 0}, "tle": {"line1": "1 39019U 12068A   25355.46986721  .00000546  00000+0  12725-3 0  9996", "line2": "2 39019  98.1792  67.9842 0001190  85.1697 274.9638 14.58560851694947"}}, "geometry": {"type": "Point", "coordinates": [-101.29306500822072, 51.7086442286916]}}, {"type": "Feature", "properties": {"norad_id": 39030, "name": "GOKTURK 2", "group": "resource", "lat": 18.03472489694515, "lon": 19.433170964355728, "alt_km": 644.0419011085287, "timestamp": "2025-12-21T16:47:54.385716+00:00", "meta": {"OBJECT_NAME": "GOKTURK 2", "OBJECT_ID": "2012-073A", "EPOCH": "2025-12-21T12:48:44.919936", "MEAN_MOTION": 14.75302492, "ECCENTRICITY": 0.000131, "INCLINATION": 97.6885, "RA_OF_ASC_NODE": 196.7544, "ARG_OF_PERICENTER": 109.2203, "MEAN_ANOMALY": 250.9149, "EPHEMERIS_TYPE": 0, "CLASSIFICATION_TYPE": "U", "NORAD_CAT_ID": 39030, "ELEMENT_SET_NO": 999, "REV_AT_EPOCH": 69831, "BSTAR": 9.3047e-05, "MEAN_MOTION_DOT": 5.83e-06, "MEAN_MOTION_DDOT": 0}, "tle": {"line1": "1 39030U 12073A   25355.53385324  .00000583  00000+0  93047-4 0  9993", "line2": "2 39030  97.6885 196.7544 0001310 109.2203 250.9149 14.75302492698312"}}, "geometry": {"type": "Point", "coordinates": [19.433170964355728, 18.03472489694515]}}, {"type": "Feature", "properties": {"norad_id": 39084, "name": "LANDSAT 8", "group": "resource", "lat": -69.41437139102445, "lon": -138.95419179971267, "alt_km": 710.5011076535484, "timestamp": "2025-12-21T16:47:54.385726+00:00", "meta": {"OBJECT_NAME": "LANDSAT 8", "OBJECT_ID": "2013-008A", "EPOCH": "2025-12-21T10:42:20.579328", "MEAN_MOTION": 14.5711087, "ECCENTRICITY": 0.0001074, "INCLINATION": 98.2061, "RA_OF_ASC_NODE": 63.3906, "ARG_OF_PERICENTER": 91.3058, "MEAN_ANOMALY": 268.8264, "EPHEMERIS_TYPE": 0, "CLASSIFICATION_TYPE": "U", "NORAD_CAT_ID": 39084, "ELEMENT_SET_NO": 999, "REV_AT_EPOCH": 67201, "BSTAR": 8.7368e-05, "MEAN_MOTION_DOT": 3.48e-06, "MEAN_MOTION_DDOT": 0}, "tle": {"line1": "1 39084U 13008A   25355.44607152  .00000348  00000+0  87368-4 0  9995", "line2": "2 39084  98.2061  63.3906 0001074  91.3058 268.8264 14.57110870672013"}}, "geometry": {"type": "Point", "coordinates": [-138.95419179971267, -69.41437139102445]}}, {"type": "Feature", "properties": {"norad_id": 39086, "name": "SARAL", "group": "resource", "lat": 7.351359676123681, "lon": 0.625389737434122, "alt_km": 784.1146585489487, "timestamp": "2025-12-21T16:47:54.385737+00:00", "meta": {"OBJECT_NAME": "SARAL", "OBJECT_ID": "2013-009A", "EPOCH": "2025-12-21T10:58:05.829888", "MEAN_MOTION": 14.32759876, "ECCENTRICITY": 0.0002959, "INCLINATION": 98.5502, "RA_OF_ASC_NODE": 179.2736, "ARG_OF_PERICENTER": 92.2471, "MEAN_ANOMALY": 267.9051, "EPHEMERIS_TYPE": 0, "CLASSIFICATION_TYPE": "U", "NORAD_CAT_ID": 39086, "ELEMENT_SET_NO": 999, "REV_AT_EPOCH": 67015, "BSTAR": 5.2556e-05, "MEAN_MOTION_DOT": 9.9e-07, "MEAN_MOTION_DDOT": 0}, "tle": {"line1": "1 39086U 13009A   25355.45701192  .00000099  00000+0  52556-4 0  9992", "line2": "2 39086  98.5502 179.2736 0002959  92.2471 267.9051 14.32759876670153"}}, "geometry": {"type": "Point", "coordinates": [0.625389737434122, 7.351359676123681]}}, {"type": "Feature", "properties": {"norad_id": 39150, "name": "GAOFEN-1", "group": "resource", "lat": -77.66161364109652, "lon": 105.80176901746431, "alt_km": 660.1717513728645, "timestamp": "2025-12-21T16:47:54.385747+00:00", "meta": {"OBJECT_NAME": "GAOFEN-1", "OBJECT_ID": "2013-018A", "EPOCH": "2025-12-21T12:17:03.987744", "MEAN_MOTION": 14.76495587, "ECCENTRICITY": 0.0018442, "INCLINATION": 97.9323, "RA_OF_ASC_NODE": 66.0166, "ARG_OF_PERICENTER": 116.3583, "MEAN_ANOMALY": 243.9523, "EPHEMERIS_TYPE": 0, "CLASSIFICATION_TYPE": "U", "NORAD_CAT_ID": 39150, "ELEMENT_SET_NO": 999, "REV_AT_EPOCH": 68202, "BSTAR": 0.00015345, "MEAN_MOTION_DOT": 1.021e-05, "MEAN_MOTION_DDOT": 0}, "tle": {"line1": "1 39150U 13018A   25355.51185171  .00001021  00000+0  15345-3 0  9994", "line2": "2 39150  97.9323  66.0166 0018442 116.3583 243.9523 14.76495587682026"}}, "geometry": {"type": "Point", "coordinates": [105.80176901746431, -77.66161364109652]}}, {"type": "Feature", "properties": {"norad_id": 39160, "name": "VNREDSAT 1", "group": "resource", "lat": -31.357290407152288, "lon": 55.53769721804737, "alt_km": 683.6648553438163, "timestamp": "2025-12-21T16:47:54.385758+00:00", "meta": {"OBJECT_NAME": "VNREDSAT 1", "OBJECT_ID": "2013-021B", "EPOCH": "2025-12-21T12:01:29.953632", "MEAN_MOTION": 14.64935322, "ECCENTRICITY": 0.0001202, "INCLINATION": 97.9366, "RA_OF_ASC_NODE": 50.4691, "ARG_OF_PERICENTER": 82.1225, "MEAN_ANOMALY": 278.0115, "EPHEMERIS_TYPE": 0, "CLASSIFICATION_TYPE": "U", "NORAD_CAT_ID": 39160, "ELEMENT_SET_NO": 999, "REV_AT_EPOCH": 67427, "BSTAR": 0.00012689, "MEAN_MOTION_DOT": 6.33e-06, "MEAN_MOTION_DDOT": 0}, "tle": {"line1": "1 39160U 13021B   25355.50104113  .00000633  00000+0  12689-3 0  9991", "line2": "2 39160  97.9366  50.4691 0001202  82.1225 278.0115 14.64935322674270"}}, "geometry": {"type": "Point", "coordinates": [55.53769721804737, -31.357290407152288]}}, {"type": "Feature", "properties": {"norad_id": 39227, "name": "ARIRANG-5 (KOMPSAT-5)", "group": "resource", "lat": -61.07901848264948, "lon": -14.13890831125347, "alt_km": 562.1972545084591, "timestamp": "2025-12-21T16:47:54.385768+00:00", "meta": {"OBJECT_NAME": "ARIRANG-5 (KOMPSAT-5)", "OBJECT_ID": "2013-042A", "EPOCH": "2025-12-21T12:32:01.998240", "MEAN_MOTION": 15.04542026, "ECCENTRICITY": 0.0003399, "INCLINATION": 97.6156, "RA_OF_ASC_NODE": 179.7003, "ARG_OF_PERICENTER": 35.7469, "MEAN_ANOMALY": 324.3984, "EPHEMERIS_TYPE": 0, "CLASSIFICATION_TYPE": "U", "NORAD_CAT_ID": 39227, "ELEMENT_SET_NO": 999, "REV_AT_EPOCH": 67714, "BSTAR": 0.00012325, "MEAN_MOTION_DOT": 1.667e-05, "MEAN_MOTION_DDOT": 0}, "tle": {"line1": "1 39227U 13042A   25355.52224535  .00001667  00000+0  12325-3 0  9996", "line2": "2 39227  97.6156 179.7003 0003399  35.7469 324.3984 15.04542026677141"}}, "geometry": {"type": "Point", "coordinates": [-14.13890831125347, -61.07901848264948]}}, {"type": "Feature", "properties": {"norad_id": 39418, "name": "SKYSAT-A", "group": "resource", "lat": 55.55186729271614, "lon": -123.42769403307031, "alt_km": 523.4044577204113, "timestamp": "2025-12-21T16:47:54.385778+00:00", "meta": {"OBJECT_NAME": "SKYSAT-A", "OBJECT_ID": "2013-066C", "EPOCH": "2025-12-21T09:53:49.340832", "MEAN_MOTION": 15.11662408, "ECCENTRICITY": 0.0021335, "INCLINATION": 97.4094, "RA_OF_ASC_NODE": 45.3574, "ARG_OF_PERICENTER": 205.1597, "MEAN_ANOMALY": 154.8596, "EPHEMERIS_TYPE": 0, "CLASSIFICATION_TYPE": "U", "NORAD_CAT_ID": 39418, "ELEMENT_SET_NO": 999, "REV_AT_EPOCH": 66161, "BSTAR": 0.00017895, "MEAN_MOTION_DOT": 2.996e-05, "MEAN_MOTION_DDOT": 0}, "tle": {"line1": "1 39418U 13066C   25355.41237663  .00002996  00000+0  17895-3 0  9991", "line2": "2 39418  97.4094  45.3574 0021335 205.1597 154.8596 15.11662408661613"}}, "geometry": {"type": "Point", "coordinates": [-123.42769403307031, 55.55186729271614]}}, {"type": "Feature", "properties": {"norad_id": 39419, "name": "DUBAISAT-2", "group": "resource", "lat": 18.021781300558132, "lon": 168.2694125731982, "alt_km": 545.4378014403128, "timestamp": "2025-12-21T16:47:54.385788+00:00", "meta": {"OBJECT_NAME": "DUBAISAT-2", "OBJECT_ID": "2013-066D", "EPOCH": "2025-12-21T12:53:55.775904", "MEAN_MOTION": 15.08430993, "ECCENTRICITY": 0.0010035, "INCLINATION": 97.4439, "RA_OF_ASC_NODE": 345.674, "ARG_OF_PERICENTER": 287.4089, "MEAN_ANOMALY": 72.6042, "EPHEMERIS_TYPE": 0, "CLASSIFICATION_TYPE": "U", "NORAD_CAT_ID": 39419, "ELEMENT_SET_NO": 999, "REV_AT_EPOCH": 65959, "BSTAR": 0.00026813, "MEAN_MOTION_DOT": 4.116e-05, "MEAN_MOTION_DDOT": 0}, "tle": {"line1": "1 39419U 13066D   25355.53745111  .00004116  00000+0  26813-3 0  9993", "line2": "2 39419  97.4439 345.6740 0010035 287.4089  72.6042 15.08430993659597"}}, "geometry": {"type": "Point", "coordinates": [168.2694125731982, 18.021781300558132]}}, {"type": "Feature", "properties": {"norad_id": 39574, "name": "GPM-CORE", "group": "resource", "lat": 43.943783264527966, "lon": -150.55933329469968, "alt_km": 433.91267572293145, "timestamp": "2025-12-21T16:47:54.385812+00:00", "meta": {"OBJECT_NAME": "GPM-CORE", "OBJECT_ID": "2014-009C", "EPOCH": "2025-12-21T11:55:14.803968", "MEAN_MOTION": 15.4458862, "ECCENTRICITY": 0.0009302, "INCLINATION": 64.9718, "RA_OF_ASC_NODE": 183.3566, "ARG_OF_PERICENTER": 248.6957, "MEAN_ANOMALY": 111.319, "EPHEMERIS_TYPE": 0, "CLASSIFICATION_TYPE": "U", "NORAD_CAT_ID": 39574, "ELEMENT_SET_NO": 999, "REV_AT_EPOCH": 67036, "BSTAR": 0.0001386, "MEAN_MOTION_DOT": 6.236e-05, "MEAN_MOTION_DDOT": 0}, "tle": {"line1": "1 39574U 14009C   25355.49669912  .00006236  00000+0  13860-3 0  9995", "line2": "2 39574  64.9718 183.3566 0009302 248.6957 111.3190 15.44588620670363"}}, "geometry": {"type": "Point", "coordinates": [-150.55933329469968, 43.943783264527966]}}]}